[{"OBJECT_NAME":"ONEWEB-0335","OBJECT_ID":"2021-083R","EPOCH":"2026-03-11T04:05:48.184512","MEAN_MOTION":13.13470145,"ECCENTRICITY":0.00016701,"INCLINATION":87.9033,"RA_OF_ASC_NODE":339.7342,"ARG_OF_PERICENTER":72.6547,"MEAN_ANOMALY":287.4765,"EPHEMERIS_TYPE":0,"CLASSIFICATION_TYPE":"U","NORAD_CAT_ID":49201,"ELEMENT_SET_NO":999,"REV_AT_EPOCH":21805,"BSTAR":-7.551334e-5,"MEAN_MOTION_DOT":-1.5e-7,"MEAN_MOTION_DDOT":0},{"OBJECT_NAME":"ONEWEB-0336","OBJECT_ID":"2021-083S","EPOCH":"2026-03-11T07:03:45.214848","MEAN_MOTION":13.1346969,"ECCENTRICITY":0.00017243,"INCLINATION":87.9032,"RA_OF_ASC_NODE":339.706,"ARG_OF_PERICENTER":63.814,"MEAN_ANOMALY":296.3166,"EPHEMERIS_TYPE":0,"CLASSIFICATION_TYPE":"U","NORAD_CAT_ID":49202,"ELEMENT_SET_NO":999,"REV_AT_EPOCH":21806,"BSTAR":-0.00028962492,"MEAN_MOTION_DOT":-9.3e-7,"MEAN_MOTION_DDOT":0},{"OBJECT_NAME":"ONEWEB-0337","OBJECT_ID":"2021-083T","EPOCH":"2026-03-11T07:18:11.628000","MEAN_MOTION":13.13469721,"ECCENTRICITY":0.00018245,"INCLINATION":87.9025,"RA_OF_ASC_NODE":339.7137,"ARG_OF_PERICENTER":72.9526,"MEAN_ANOMALY":287.1803,"EPHEMERIS_TYPE":0,"CLASSIFICATION_TYPE":"U","NORAD_CAT_ID":49203,"ELEMENT_SET_NO":999,"REV_AT_EPOCH":21806,"BSTAR":-0.00063977013,"MEAN_MOTION_DOT":-2.21e-6,"MEAN_MOTION_DDOT":0},{"OBJECT_NAME":"ONEWEB-0338","OBJECT_ID":"2021-083U","EPOCH":"2026-03-11T03:55:47.866080","MEAN_MOTION":13.20770685,"ECCENTRICITY":0.00017831,"INCLINATION":87.9158,"RA_OF_ASC_NODE":294.0308,"ARG_OF_PERICENTER":97.4454,"MEAN_ANOMALY":262.6882,"EPHEMERIS_TYPE":0,"CLASSIFICATION_TYPE":"U","NORAD_CAT_ID":49204,"ELEMENT_SET_NO":999,"REV_AT_EPOCH":22387,"BSTAR":8.57678e-7,"MEAN_MOTION_DOT":1.3e-7,"MEAN_MOTION_DDOT":0},{"OBJECT_NAME":"ONEWEB-0339","OBJECT_ID":"2021-083V","EPOCH":"2026-03-11T03:51:10.768320","MEAN_MOTION":13.13471106,"ECCENTRICITY":0.00019292,"INCLINATION":87.9035,"RA_OF_ASC_NODE":339.7301,"ARG_OF_PERICENTER":85.1024,"MEAN_ANOMALY":275.0325,"EPHEMERIS_TYPE":0,"CLASSIFICATION_TYPE":"U","NORAD_CAT_ID":49205,"ELEMENT_SET_NO":999,"REV_AT_EPOCH":21802,"BSTAR":-0.00071208025,"MEAN_MOTION_DOT":-2.47e-6,"MEAN_MOTION_DDOT":0},{"OBJECT_NAME":"ONEWEB-0340","OBJECT_ID":"2021-083W","EPOCH":"2026-03-11T06:04:58.788480","MEAN_MOTION":13.18686863,"ECCENTRICITY":0.00017062,"INCLINATION":87.9254,"RA_OF_ASC_NODE":354.9041,"ARG_OF_PERICENTER":79.7852,"MEAN_ANOMALY":280.3472,"EPHEMERIS_TYPE":0,"CLASSIFICATION_TYPE":"U","NORAD_CAT_ID":49206,"ELEMENT_SET_NO":999,"REV_AT_EPOCH":21706,"BSTAR":0.00026668383,"MEAN_MOTION_DOT":1.18e-6,"MEAN_MOTION_DDOT":0},{"OBJECT_NAME":"ONEWEB-0341","OBJECT_ID":"2021-083X","EPOCH":"2026-03-11T06:14:29.131296","MEAN_MOTION":13.18686836,"ECCENTRICITY":0.00022165,"INCLINATION":87.9245,"RA_OF_ASC_NODE":354.9123,"ARG_OF_PERICENTER":71.081,"MEAN_ANOMALY":289.0562,"EPHEMERIS_TYPE":0,"CLASSIFICATION_TYPE":"U","NORAD_CAT_ID":49207,"ELEMENT_SET_NO":999,"REV_AT_EPOCH":21708,"BSTAR":7.2340007e-5,"MEAN_MOTION_DOT":4.1e-7,"MEAN_MOTION_DDOT":0},{"OBJECT_NAME":"ONEWEB-0342","OBJECT_ID":"2021-083Y","EPOCH":"2026-03-11T04:04:52.830624","MEAN_MOTION":13.20769591,"ECCENTRICITY":0.00017229,"INCLINATION":87.9171,"RA_OF_ASC_NODE":294.0083,"ARG_OF_PERICENTER":89.7238,"MEAN_ANOMALY":270.4093,"EPHEMERIS_TYPE":0,"CLASSIFICATION_TYPE":"U","NORAD_CAT_ID":49208,"ELEMENT_SET_NO":999,"REV_AT_EPOCH":22384,"BSTAR":0.00013486331,"MEAN_MOTION_DOT":6.8e-7,"MEAN_MOTION_DDOT":0},{"OBJECT_NAME":"ONEWEB-0343","OBJECT_ID":"2021-083Z","EPOCH":"2026-03-11T06:26:21.221952","MEAN_MOTION":13.18686511,"ECCENTRICITY":0.00023287,"INCLINATION":87.9256,"RA_OF_ASC_NODE":354.9046,"ARG_OF_PERICENTER":79.9414,"MEAN_ANOMALY":280.1981,"EPHEMERIS_TYPE":0,"CLASSIFICATION_TYPE":"U","NORAD_CAT_ID":49209,"ELEMENT_SET_NO":999,"REV_AT_EPOCH":21713,"BSTAR":0.00018184523,"MEAN_MOTION_DOT":8.5e-7,"MEAN_MOTION_DDOT":0},{"OBJECT_NAME":"ONEWEB-0344","OBJECT_ID":"2021-083AA","EPOCH":"2026-03-11T07:23:15.219456","MEAN_MOTION":13.13470727,"ECCENTRICITY":0.00020197,"INCLINATION":87.9024,"RA_OF_ASC_NODE":339.7241,"ARG_OF_PERICENTER":72.0108,"MEAN_ANOMALY":288.1241,"EPHEMERIS_TYPE":0,"CLASSIFICATION_TYPE":"U","NORAD_CAT_ID":49210,"ELEMENT_SET_NO":999,"REV_AT_EPOCH":21804,"BSTAR":-0.0007637895,"MEAN_MOTION_DOT":-2.66e-6,"MEAN_MOTION_DDOT":0},{"OBJECT_NAME":"ONEWEB-0345","OBJECT_ID":"2021-083AB","EPOCH":"2026-03-11T07:11:03.845184","MEAN_MOTION":13.13469261,"ECCENTRICITY":0.0002024,"INCLINATION":87.9035,"RA_OF_ASC_NODE":339.6934,"ARG_OF_PERICENTER":73.0251,"MEAN_ANOMALY":287.11,"EPHEMERIS_TYPE":0,"CLASSIFICATION_TYPE":"U","NORAD_CAT_ID":49211,"ELEMENT_SET_NO":999,"REV_AT_EPOCH":21805,"BSTAR":-0.00035440977,"MEAN_MOTION_DOT":-1.17e-6,"MEAN_MOTION_DDOT":0},{"OBJECT_NAME":"ONEWEB-0346","OBJECT_ID":"2021-083AC","EPOCH":"2026-03-11T06:21:34.471584","MEAN_MOTION":13.18685001,"ECCENTRICITY":0.00014398,"INCLINATION":87.9243,"RA_OF_ASC_NODE":354.9134,"ARG_OF_PERICENTER":57.1448,"MEAN_ANOMALY":302.9822,"EPHEMERIS_TYPE":0,"CLASSIFICATION_TYPE":"U","NORAD_CAT_ID":49212,"ELEMENT_SET_NO":999,"REV_AT_EPOCH":21707,"BSTAR":0.00011890881,"MEAN_MOTION_DOT":6.0e-7,"MEAN_MOTION_DDOT":0},{"OBJECT_NAME":"ONEWEB-0348","OBJECT_ID":"2021-083AD","EPOCH":"2026-03-11T03:51:15.245568","MEAN_MOTION":13.20770706,"ECCENTRICITY":0.00016366,"INCLINATION":87.9167,"RA_OF_ASC_NODE":294.0128,"ARG_OF_PERICENTER":66.5812,"MEAN_ANOMALY":293.5493,"EPHEMERIS_TYPE":0,"CLASSIFICATION_TYPE":"U","NORAD_CAT_ID":49213,"ELEMENT_SET_NO":999,"REV_AT_EPOCH":22387,"BSTAR":-3.176215e-5,"MEAN_MOTION_DOT":0,"MEAN_MOTION_DDOT":0},{"OBJECT_NAME":"ONEWEB-0350","OBJECT_ID":"2021-083AE","EPOCH":"2026-03-11T07:24:28.337184","MEAN_MOTION":13.13470658,"ECCENTRICITY":0.00019572,"INCLINATION":87.9031,"RA_OF_ASC_NODE":339.6914,"ARG_OF_PERICENTER":70.6461,"MEAN_ANOMALY":289.488,"EPHEMERIS_TYPE":0,"CLASSIFICATION_TYPE":"U","NORAD_CAT_ID":49214,"ELEMENT_SET_NO":999,"REV_AT_EPOCH":21808,"BSTAR":-0.00076941325,"MEAN_MOTION_DOT":-2.68e-6,"MEAN_MOTION_DDOT":0},{"OBJECT_NAME":"ONEWEB-0351","OBJECT_ID":"2021-083AF","EPOCH":"2026-03-11T03:41:58.230816","MEAN_MOTION":13.20770842,"ECCENTRICITY":0.00024474,"INCLINATION":87.9168,"RA_OF_ASC_NODE":294.0124,"ARG_OF_PERICENTER":100.7126,"MEAN_ANOMALY":259.4283,"EPHEMERIS_TYPE":0,"CLASSIFICATION_TYPE":"U","NORAD_CAT_ID":49215,"ELEMENT_SET_NO":999,"REV_AT_EPOCH":22383,"BSTAR":7.5471135e-5,"MEAN_MOTION_DOT":4.4e-7,"MEAN_MOTION_DDOT":0},{"OBJECT_NAME":"ONEWEB-0352","OBJECT_ID":"2021-083AG","EPOCH":"2026-03-11T05:06:45.256320","MEAN_MOTION":13.13470559,"ECCENTRICITY":0.00020198,"INCLINATION":87.9031,"RA_OF_ASC_NODE":339.726,"ARG_OF_PERICENTER":88.8127,"MEAN_ANOMALY":271.3234,"EPHEMERIS_TYPE":0,"CLASSIFICATION_TYPE":"U","NORAD_CAT_ID":49216,"ELEMENT_SET_NO":999,"REV_AT_EPOCH":21816,"BSTAR":0.0001989248,"MEAN_MOTION_DOT":8.5e-7,"MEAN_MOTION_DDOT":0}]
