ONEWEB-0335             
1 49201U 21083R   26070.17069658 -.00000015  00000+0 -75513-4 0  9999
2 49201  87.9033 339.7342 0001670  72.6547 287.4765 13.13470145218058
ONEWEB-0336             
1 49202U 21083S   26070.29427332 -.00000093  00000+0 -28962-3 0  9991
2 49202  87.9032 339.7060 0001724  63.8140 296.3166 13.13469690218064
ONEWEB-0337             
1 49203U 21083T   26070.30430125 -.00000221  00000+0 -63977-3 0  9996
2 49203  87.9025 339.7137 0001824  72.9526 287.1803 13.13469721218063
ONEWEB-0338             
1 49204U 21083U   26070.16374845  .00000013  00000+0  85768-6 0  9999
2 49204  87.9158 294.0308 0001783  97.4454 262.6882 13.20770685223872
ONEWEB-0339             
1 49205U 21083V   26070.16054130 -.00000247  00000+0 -71208-3 0  9994
2 49205  87.9035 339.7301 0001929  85.1024 275.0325 13.13471106218025
ONEWEB-0340             
1 49206U 21083W   26070.25345820  .00000118  00000+0  26668-3 0  9999
2 49206  87.9254 354.9041 0001706  79.7852 280.3472 13.18686863217068
ONEWEB-0341             
1 49207U 21083X   26070.26005939  .00000041  00000+0  72340-4 0  9999
2 49207  87.9245 354.9123 0002216  71.0810 289.0562 13.18686836217084
ONEWEB-0342             
1 49208U 21083Y   26070.17005591  .00000068  00000+0  13486-3 0  9998
2 49208  87.9171 294.0083 0001722  89.7238 270.4093 13.20769591223840
ONEWEB-0343             
1 49209U 21083Z   26070.26830118  .00000085  00000+0  18185-3 0  9990
2 49209  87.9256 354.9046 0002328  79.9414 280.1981 13.18686511217136
ONEWEB-0344             
1 49210U 21083AA  26070.30781504 -.00000266  00000+0 -76379-3 0  9993
2 49210  87.9024 339.7241 0002019  72.0108 288.1241 13.13470727218043
ONEWEB-0345             
1 49211U 21083AB  26070.29935006 -.00000117  00000+0 -35441-3 0  9990
2 49211  87.9035 339.6934 0002024  73.0251 287.1100 13.13469261218055
ONEWEB-0346             
1 49212U 21083AC  26070.26498231  .00000060  00000+0  11891-3 0  9990
2 49212  87.9243 354.9134 0001439  57.1448 302.9822 13.18685001217074
ONEWEB-0348             
1 49213U 21083AD  26070.16059312  .00000000  00000+0 -31762-4 0  9998
2 49213  87.9167 294.0128 0001636  66.5812 293.5493 13.20770706223879
ONEWEB-0350             
1 49214U 21083AE  26070.30866131 -.00000268  00000+0 -76941-3 0  9994
2 49214  87.9031 339.6914 0001957  70.6461 289.4880 13.13470658218087
ONEWEB-0351             
1 49215U 21083AF  26070.15414619  .00000044  00000+0  75471-4 0  9996
2 49215  87.9168 294.0124 0002447 100.7126 259.4283 13.20770842223833
ONEWEB-0352             
1 49216U 21083AG  26070.21302380  .00000085  00000+0  19892-3 0  9994
2 49216  87.9031 339.7260 0002019  88.8127 271.3234 13.13470559218166
